AMC-11                  
1 28252U 04017A   24306.47373648 -.00000031  00000+0  00000+0 0  9991
2 28252   0.0519  65.5790 0002412 166.0525 229.0857  1.00272641 74762
INTELSAT 10-02          
1 28358U 04022A   24306.34424501  .00000008  00000+0  00000+0 0  9998
2 28358   0.0047 326.5208 0000502 289.9833 267.5860  1.00272121 74689
ANIK F2                 
1 28378U 04027A   24305.61584156 -.00000032  00000+0  00000+0 0  9995
2 28378   1.7503  87.1964 0001797  84.2020 339.6326  1.00272671 35311
AMC-15                  
1 28446U 04041A   24306.47486594 -.00000070  00000+0  00000+0 0  9991
2 28446   0.0664  80.1428 0002253 133.9303 253.1154  1.00271850 73408
NSS-10                  
1 28526U 05003A   24306.27383933 -.00000231  00000+0  00000+0 0  9999
2 28526   4.9609  77.5551 0002627 136.1031 248.5598  1.00272254 72378
XTAR-EUR                
1 28542U 05005A   24305.04266520  .00000168  00000+0  00000+0 0  9993
2 28542   2.7966  84.0825 0004591 154.6314 205.5196  1.00274736 72235
XM-3 (RHYTHM)           
1 28626U 05008A   24305.83547538 -.00000188  00000+0  00000+0 0  9990
2 28626   0.0160 241.5750 0004992 339.7746  34.9267  1.00272177 36670
INMARSAT 4-F1           
1 28628U 05009A   24306.15813228  .00000052  00000+0  00000+0 0  9990
2 28628   4.4262  41.5189 0003376 200.2742  34.1763  1.00273278 71710
DIRECTV 8               
1 28659U 05019A   24306.14424456  .00000019  00000+0  00000+0 0  9998
2 28659   0.0120  81.4231 0002914 145.7523 106.6655  1.00271402 71247
GALAXY 28 (G-28)        
1 28702U 05022A   24306.20952007 -.00000166  00000+0  00000+0 0  9990
2 28702   1.7632  86.2491 0006440 167.8565 133.3301  1.00271608 70884
THAICOM 4               
1 28786U 05028A   24306.55743757 -.00000343  00000+0  00000+0 0  9993
2 28786   0.0189 265.7386 0002609 320.4115 135.4070  1.00271135 70389
GALAXY 14 (G-14)        
1 28790U 05030A   24305.83347713  .00000020  00000+0  00000+0 0  9994
2 28790   3.4805  82.1401 0001184 116.6081  46.6994  0.99006148 70351
ANIK F1R                
1 28868U 05036A   24305.61662347 -.00000056  00000+0  00000+0 0  9995
2 28868   2.7823  83.9095 0001764 112.4308 318.7985  1.00272831 40501
SYRACUSE 3A             
1 28885U 05041B   24305.82966042  .00000150  00000+0  00000+0 0  9996
2 28885   3.1219  83.1896 0003990 150.9775 151.3368  1.00272017 69797
INMARSAT 4-F2           
1 28899U 05044A   24305.73790861 -.00000243  00000+0  00000+0 0  9992
2 28899   4.3441  42.8772 0003050 195.6874 211.1197  1.00272934 69579
SPACEWAY 2              
1 28903U 05046B   24305.61036808  .00000121  00000+0  00000+0 0  9995
2 28903   3.9397  78.3773 0000678   9.9677  33.0101  1.00268040 45399
METEOSAT-9 (MSG-2)      
1 28912U 05049B   24305.93295524  .00000144  00000+0  00000+0 0  9990
2 28912   8.0024  59.6787 0002147 185.0925 177.5574  1.00275149 69138
EUTELSAT 174A           
1 28924U 05052A   24306.17290118  .00000030  00000+0  00000+0 0  9992
2 28924   2.7078  83.8113 0006369 138.6262  54.8022  1.00271765 69035
ECHOSTAR 10             
1 28935U 06003A   24305.90202581 -.00000038  00000+0  00000+0 0  9997
2 28935   0.0459  64.8722 0001575 101.3349  89.0383  1.00271807 68523
SPAINSAT                
1 28945U 06007A   24305.96997490 -.00000198  00000+0  00000+0 0  9995
2 28945   0.0108 213.1169 0005889  13.5799 133.2924  1.00271656 68260
EUTELSAT HOTBIRD 13E    
1 28946U 06007B   24306.14084755  .00000105  00000+0  00000+0 0  9995
2 28946   0.5547  96.3293 0004898 125.0881 243.0336  1.00270400 68355
JCSAT-5A                
1 29045U 06010A   24306.56914693 -.00000309  00000+0  00000+0 0  9996
2 29045   0.0179 261.1541 0001828 351.5562 125.5625  1.00268331 68009
ASTRA 1KR               
1 29055U 06012A   24306.33313365  .00000139  00000+0  00000+0 0  9993
2 29055   0.0210 294.8677 0005439 298.3544 307.0472  1.00274465 67808
EWS-G1 (GOES 13)        
1 29155U 06018A   24305.41365431 -.00000166  00000+0  00000+0 0  9990
2 29155   2.9793  83.6069 0062816 256.3159 159.9073  0.98832174 37387
GALAXY 16 (G-16)        
1 29236U 06023A   24306.21507716 -.00000109  00000+0  00000+0 0  9996
2 29236   0.0164 235.3452 0002568 347.8381 156.2525  1.00272320 67325
EUTELSAT HOTBIRD 13B    
1 29270U 06032A   24305.86368726  .00000173  00000+0  00000+0 0  9990
2 29270   0.1217  81.0211 0003887 152.6823 150.9935  1.00269906 41357
JCSAT-3A                
1 29272U 06033A   24306.02077878 -.00000327  00000+0  00000+0 0  9999
2 29272   0.0059 265.5830 0002261 325.5022 305.1826  1.00267534 66811
SYRACUSE 3B             
1 29273U 06033B   24306.13902306  .00000041  00000+0  00000+0 0  9997
2 29273   1.3722  87.6032 0004290 149.5190 217.2267  1.00269453 66807
KOREASAT 5 (MUGUNGWHA 5)
1 29349U 06034A   24306.01782485 -.00000340  00000+0  00000+0 0  9996
2 29349   0.2409  93.1030 0001627 161.6937 265.5090  1.00273208 66685
DIRECTV 9S              
1 29494U 06043A   24305.90376343 -.00000095  00000+0  00000+0 0  9993
2 29494   0.8811  87.9500 0002861 125.5039  51.4123  1.00272053 45431
OPTUS D1                
1 29495U 06043B   24305.88256459 -.00000164  00000+0  00000+0 0  9993
2 29495   1.4955  87.0042 0003610 130.0938 293.3285  1.00273122 66170
BADR-4                  
1 29526U 06051A   24305.86924420  .00000163  00000+0  00000+0 0  9993
2 29526   0.4654  85.2958 0006599 178.9148 115.6225  1.00272597 65948
WILDBLUE-1              
1 29643U 06054A   24305.61584156 -.00000031  00000+0  00000+0 0  9992
2 29643   1.2624  88.2164 0001837 136.3344 286.4103  1.00272841 47845
SKYNET 5A               
1 30794U 07007B   24306.01426274 -.00000252  00000+0  00000+0 0  9996
2 30794   3.7811  80.8589 0004280 154.9158 265.3968  1.00271347 64701
ANIK F3                 
1 31102U 07009A   24305.90020133  .00000016  00000+0  00000+0 0  9990
2 31102   0.0177 268.2522 0001968 319.6629  18.1748  1.00274814 40618
ASTRA 1L                
1 31306U 07016A   24305.87479817  .00000138  00000+0  00000+0 0  9992
2 31306   0.0541 334.5671 0005712 282.7879 117.4633  1.00274551 64091
GALAXY 17 (G-17)        
1 31307U 07016B   24305.83547538 -.00000188  00000+0  00000+0 0  9991
2 31307   1.4609  87.4550 0005276 158.7288  10.2532  1.00272843 64127
ZHONGXING-6B            
1 31800U 07031A   24305.85322729 -.00000343  00000+0  00000+0 0  9994
2 31800   0.8623  89.0433 0004090 142.0403 231.9784  1.00275998 63483
DIRECTV 10              
1 31862U 07032A   24306.31785402 -.00000085  00000+0  00000+0 0  9999
2 31862   0.0320 112.0800 0000732 103.1280 197.5640  1.00272289 63468
BSAT-3A                 
1 32019U 07036B   24306.54252906 -.00000331  00000+0  00000+0 0  9995
2 32019   0.0396 130.9856 0004443  88.9975 126.5154  1.00273827 63124
OPTUS D2                
1 32252U 07044A   24306.17012101 -.00000090  00000+0  00000+0 0  9995
2 32252   0.5322  89.5307 0005949 147.4250  25.3675  1.00271823 62493
INTELSAT 11 (IS-11)     
1 32253U 07044B   24306.02688133 -.00000249  00000+0  00000+0 0  9990
2 32253   2.0155  85.9896 0003660 154.1890 127.3365  1.00272449 62585
WGS F1 (USA 195)        
1 32258U 07046A   24305.84398966 -.00000249  00000+0  00000+0 0  9998
2 32258   0.1347  89.8508 0000380  79.1167 133.0360  1.00270972 46393
SKYNET 5B               
1 32294U 07056B   24305.86924420  .00000160  00000+0  00000+0 0  9992
2 32294   3.7336  80.5204 0003781 138.4209 159.7296  1.00270451 62242
ASTRA 4A                
1 32299U 07057A   24305.78187014  .00000050  00000+0  00000+0 0  9997
2 32299   0.0602  69.0529 0002850 133.1894 124.6288  1.00272561 45699
HORIZONS-2              
1 32388U 07063B   24306.47914242 -.00000234  00000+0  00000+0 0  9996
2 32388   1.0640  87.8762 0001833 129.0656 283.0394  1.00273668 61930
THURAYA-3               
1 32404U 08001A   24305.80202877 -.00000285  00000+0  00000+0 0  9994
2 32404   5.0416  33.4589 0002183 192.1400 202.2428  1.00272982 61541
THOR 5                  
1 32487U 08006A   24305.94047625  .00000009  00000+0  00000+0 0  9996
2 32487   0.0148 248.5162 0002241 329.4697 160.5782  1.00271617 61366
AMC-14                  
1 32708U 08011A   24304.92635994  .00000080  00000+0  00000+0 0  9996
2 32708  23.2664  27.6700 0034308 354.8250   8.1895  1.00270843 62219
DIRECTV 11              
1 32729U 08013A   24306.37410420 -.00000107  00000+0  00000+0 0  9998
2 32729   0.0152  72.5599 0000277  92.6261 271.4909  1.00270144 60997
ICO G1                  
1 32763U 08016A   24305.83391154 -.00000155  00000+0  00000+0 0  9994
2 32763   5.1152  35.8808 0002280 187.4436  24.6723  1.00272064 60512
VINASAT-1               
1 32767U 08018A   24305.73564972 -.00000311  00000+0  00000+0 0  9993
2 32767   0.0235 358.5810 0002113 239.6737 199.0697  1.00274935 60638
STAR ONE C2             
1 32768U 08018B   24306.48285894 -.00000258  00000+0  00000+0 0  9990
2 32768   0.0458  36.3753 0002567 179.3236 294.4244  1.00271078 60600
AMOS-3                  
1 32794U 08022A   24305.78004564 -.00000018  00000+0  00000+0 0  9993
2 32794   0.0547  88.4199 0002439 129.0151  99.8361  1.00271972 76388
GALAXY 18 (G-18)        
1 32951U 08024A   24305.89933253  .00000043  00000+0  00000+0 0  9995
2 32951   0.0211 269.6192 0002976 304.1873  27.6510  1.00272074 39906
ZHONGXING-9             
1 33051U 08028A   24305.90119156 -.00000230  00000+0  00000+0 0  9990
2 33051   0.0176 244.7326 0003900 343.1675 229.4209  1.00270139 60082
SKYNET 5C               
1 33055U 08030A   24306.13476591 -.00000120  00000+0  00000+0 0  9990
2 33055   2.2583  83.8617 0003928 146.2589 201.5166  1.00271359 59955
TURKSAT 3A              
1 33056U 08030B   24305.91438414  .00000163  00000+0  00000+0 0  9994
2 33056   0.0554  95.5521 0003941 110.8676 205.5055  1.00275652 46400
INTELSAT 25 (IS-25)     
1 33153U 08034A   24305.84146561 -.00000205  00000+0  00000+0 0  9995
2 33153   1.1699  87.5794 0003032 140.5745  83.9319  1.00272074 59748
